start=new Date('2022-04-17T00:00:00.000Z').valueOf();
sats=[{"SEMIMAJOR_AXIS":"6925.428","EPOCH":"2022-04-16T20:11:13.488576","REV_AT_EPOCH":"6588","MEAN_ELEMENT_THEORY":"SGP4","RA_OF_ASC_NODE":"314.0433","CLASSIFICATION_TYPE":"U","INCLINATION":"53.0533","GP_ID":"201420370","PERIAPSIS":"546.163","TIME_SYSTEM":"UTC","OBJECT_TYPE":"PAYLOAD","TLE_LINE2":"2 47666  53.0533 314.0433 0001632  57.9277 302.1871 15.06373921 65883","ECCENTRICITY":"0.00016320","FILE":"3404767","SITE":"AFETR","APOAPSIS":"548.424","PERIOD":"95.594","BSTAR":"-0.00099064000000","TLE_LINE1":"1 47666U 21012AY  22106.84112834 -.00014996  00000-0 -99064-3 0  9999","MEAN_ANOMALY":"302.1871","ELEMENT_SET_NO":"999","LAUNCH_DATE":"2021-02-16","CENTER_NAME":"EARTH","MEAN_MOTION_DDOT":"0.0000000000000","REF_FRAME":"TEME","RCS_SIZE":"LARGE","OBJECT_NAME":"STARLINK-2057","ARG_OF_PERICENTER":"57.9277","DECAY_DATE":null,"OBJECT_ID":"2021-012AY","EPHEMERIS_TYPE":"0","MEAN_MOTION_DOT":"-0.00014996","NORAD_CAT_ID":"47666","COUNTRY_CODE":"US","MEAN_MOTION":"15.06373921"},{"OBJECT_NAME":"STARLINK-2058","ARG_OF_PERICENTER":"61.1935","RCS_SIZE":"LARGE","REF_FRAME":"TEME","CENTER_NAME":"EARTH","MEAN_MOTION_DDOT":"0.0000000000000","MEAN_ANOMALY":"298.9217","LAUNCH_DATE":"2021-02-16","ELEMENT_SET_NO":"999","TLE_LINE1":"1 47667U 21012AZ  22106.93008321 -.00000267  00000-0  98980-6 0  9999","COUNTRY_CODE":"US","MEAN_MOTION":"15.06384856","NORAD_CAT_ID":"47667","MEAN_MOTION_DOT":"-0.00000267","EPHEMERIS_TYPE":"0","OBJECT_ID":"2021-012AZ","DECAY_DATE":null,"GP_ID":"201420617","CLASSIFICATION_TYPE":"U","INCLINATION":"53.0555","RA_OF_ASC_NODE":"338.6465","MEAN_ELEMENT_THEORY":"SGP4","REV_AT_EPOCH":"6552","EPOCH":"2022-04-16T22:19:19.189344","SEMIMAJOR_AXIS":"6925.395","APOAPSIS":"548.387","PERIOD":"95.593","BSTAR":"0.00000098980000","SITE":"AFETR","FILE":"3404767","ECCENTRICITY":"0.00016270","OBJECT_TYPE":"PAYLOAD","TLE_LINE2":"2 47667  53.0555 338.6465 0001627  61.1935 298.9217 15.06384856 65523","PERIAPSIS":"546.133","TIME_SYSTEM":"UTC"},{"MEAN_MOTION_DOT":"-0.00002977","NORAD_CAT_ID":"47668","COUNTRY_CODE":"US","MEAN_MOTION":"15.06363083","DECAY_DATE":null,"OBJECT_ID":"2021-012BA","EPHEMERIS_TYPE":"0","CENTER_NAME":"EARTH","MEAN_MOTION_DDOT":"0.0000000000000","REF_FRAME":"TEME","RCS_SIZE":"LARGE","OBJECT_NAME":"STARLINK-2059","ARG_OF_PERICENTER":"65.5591","TLE_LINE1":"1 47668U 21012BA  22106.90614267 -.00002977  00000-0 -18123-3 0  9998","MEAN_ANOMALY":"294.5540","LAUNCH_DATE":"2021-02-16","ELEMENT_SET_NO":"999","FILE":"3404767","SITE":"AFETR","PERIOD":"95.594","APOAPSIS":"548.274","BSTAR":"-0.00018123000000","PERIAPSIS":"546.379","TIME_SYSTEM":"UTC","OBJECT_TYPE":"PAYLOAD","TLE_LINE2":"2 47668  53.0548 318.7418 0001368  65.5591 294.5540 15.06363083 65824","ECCENTRICITY":"0.00013680","CLASSIFICATION_TYPE":"U","RA_OF_ASC_NODE":"318.7418","INCLINATION":"53.0548","GP_ID":"201419869","SEMIMAJOR_AXIS":"6925.462","EPOCH":"2022-04-16T21:44:50.726688","REV_AT_EPOCH":"6582","MEAN_ELEMENT_THEORY":"SGP4"},{"OBJECT_ID":"2021-012BB","DECAY_DATE":null,"EPHEMERIS_TYPE":"0","NORAD_CAT_ID":"47669","MEAN_MOTION_DOT":"0.00021354","MEAN_MOTION":"15.06689649","COUNTRY_CODE":"US","TLE_LINE1":"1 47669U 21012BB  22106.91668981  .00021354  00000-0  14369-2 0  9997","MEAN_ANOMALY":"8.3785","LAUNCH_DATE":"2021-02-16","ELEMENT_SET_NO":"999","REF_FRAME":"TEME","CENTER_NAME":"EARTH","MEAN_MOTION_DDOT":"0.0000000000000","OBJECT_NAME":"STARLINK-2060","ARG_OF_PERICENTER":"50.8690","RCS_SIZE":"LARGE","OBJECT_TYPE":"PAYLOAD","TLE_LINE2":"2 47669  53.0545 243.6937 0001632  50.8690   8.3785 15.06689649  3604","TIME_SYSTEM":"UTC","PERIAPSIS":"545.196","ECCENTRICITY":"0.00016320","FILE":"3404767","APOAPSIS":"547.456","PERIOD":"95.574","BSTAR":"0.00143690000000","SITE":"AFETR","EPOCH":"2022-04-16T22:00:01.999584","REV_AT_EPOCH":"360","SEMIMAJOR_AXIS":"6924.461","MEAN_ELEMENT_THEORY":"SGP4","GP_ID":"201419619","CLASSIFICATION_TYPE":"U","INCLINATION":"53.0545","RA_OF_ASC_NODE":"243.6937"},{"TLE_LINE1":"1 47670U 21012BC  22106.85452548 -.00002002  00000-0 -11553-3 0  9996","MEAN_ANOMALY":"320.8266","ELEMENT_SET_NO":"999","LAUNCH_DATE":"2021-02-16","CENTER_NAME":"EARTH","MEAN_MOTION_DDOT":"0.0000000000000","REF_FRAME":"TEME","RCS_SIZE":"LARGE","OBJECT_NAME":"STARLINK-2062","ARG_OF_PERICENTER":"39.2882","DECAY_DATE":null,"OBJECT_ID":"2021-012BC","EPHEMERIS_TYPE":"0","MEAN_MOTION_DOT":"-0.00002002","NORAD_CAT_ID":"47670","MEAN_MOTION":"15.06396419","COUNTRY_CODE":"US","SEMIMAJOR_AXIS":"6925.360","REV_AT_EPOCH":"6580","EPOCH":"2022-04-16T20:30:31.001472","MEAN_ELEMENT_THEORY":"SGP4","CLASSIFICATION_TYPE":"U","RA_OF_ASC_NODE":"318.9642","INCLINATION":"53.0550","GP_ID":"201420871","TIME_SYSTEM":"UTC","PERIAPSIS":"545.701","OBJECT_TYPE":"PAYLOAD","TLE_LINE2":"2 47670  53.0550 318.9642 0002200  39.2882 320.8266 15.06396419 65803","ECCENTRICITY":"0.00022000","FILE":"3404767","SITE":"AFETR","PERIOD":"95.592","APOAPSIS":"548.748","BSTAR":"-0.00011553000000"},{"EPHEMERIS_TYPE":"0","OBJECT_ID":"2021-012BD","DECAY_DATE":null,"MEAN_MOTION":"15.06365122","COUNTRY_CODE":"US","NORAD_CAT_ID":"47671","MEAN_MOTION_DOT":"-0.00017397","MEAN_ANOMALY":"279.6903","ELEMENT_SET_NO":"999","LAUNCH_DATE":"2021-02-16","TLE_LINE1":"1 47671U 21012BD  22106.90243382 -.00017397  00000-0 -11530-2 0  9994","OBJECT_NAME":"STARLINK-2064","ARG_OF_PERICENTER":"80.4242","RCS_SIZE":"LARGE","REF_FRAME":"TEME","CENTER_NAME":"EARTH","MEAN_MOTION_DDOT":"0.0000000000000","ECCENTRICITY":"0.00013860","OBJECT_TYPE":"PAYLOAD","TLE_LINE2":"2 47671  53.0525 318.7600 0001386  80.4242 279.6903 15.06365122 65828","PERIAPSIS":"546.361","TIME_SYSTEM":"UTC","APOAPSIS":"548.280","PERIOD":"95.594","BSTAR":"-0.00115300000000","SITE":"AFETR","FILE":"3404767","MEAN_ELEMENT_THEORY":"SGP4","EPOCH":"2022-04-16T21:39:30.282048","REV_AT_EPOCH":"6582","SEMIMAJOR_AXIS":"6925.455","GP_ID":"201421118","RA_OF_ASC_NODE":"318.7600","INCLINATION":"53.0525","CLASSIFICATION_TYPE":"U"},{"FILE":"3404767","SITE":"AFETR","APOAPSIS":"548.243","PERIOD":"95.593","BSTAR":"-0.00009926600000","PERIAPSIS":"546.257","TIME_SYSTEM":"UTC","OBJECT_TYPE":"PAYLOAD","TLE_LINE2":"2 47672  53.0558 308.8509 0001434  83.9817 276.1335 15.06388162 65935","ECCENTRICITY":"0.00014340","CLASSIFICATION_TYPE":"U","INCLINATION":"53.0558","RA_OF_ASC_NODE":"308.8509","GP_ID":"201419369","SEMIMAJOR_AXIS":"6925.385","REV_AT_EPOCH":"6593","EPOCH":"2022-04-16T21:09:01.081728","MEAN_ELEMENT_THEORY":"SGP4","MEAN_MOTION_DOT":"-0.00001759","NORAD_CAT_ID":"47672","COUNTRY_CODE":"US","MEAN_MOTION":"15.06388162","DECAY_DATE":null,"OBJECT_ID":"2021-012BE","EPHEMERIS_TYPE":"0","CENTER_NAME":"EARTH","MEAN_MOTION_DDOT":"0.0000000000000","REF_FRAME":"TEME","RCS_SIZE":"LARGE","OBJECT_NAME":"STARLINK-2065","ARG_OF_PERICENTER":"83.9817","TLE_LINE1":"1 47672U 21012BE  22106.88126252 -.00001759  00000-0 -99266-4 0  9997","MEAN_ANOMALY":"276.1335","ELEMENT_SET_NO":"999","LAUNCH_DATE":"2021-02-16"},{"CENTER_NAME":"EARTH","MEAN_MOTION_DDOT":"0.0000000000000","REF_FRAME":"TEME","RCS_SIZE":"LARGE","OBJECT_NAME":"STARLINK-2066","ARG_OF_PERICENTER":"45.0438","TLE_LINE1":"1 47673U 21012BF  22106.85820403 -.00003638  00000-0 -22555-3 0  9998","MEAN_ANOMALY":"315.0671","LAUNCH_DATE":"2021-02-16","ELEMENT_SET_NO":"999","MEAN_MOTION_DOT":"-0.00003638","NORAD_CAT_ID":"47673","MEAN_MOTION":"15.06388222","COUNTRY_CODE":"US","DECAY_DATE":null,"OBJECT_ID":"2021-012BF","EPHEMERIS_TYPE":"0","CLASSIFICATION_TYPE":"U","INCLINATION":"53.0553","RA_OF_ASC_NODE":"318.9644","GP_ID":"201420120","SEMIMAJOR_AXIS":"6925.385","REV_AT_EPOCH":"6580","EPOCH":"2022-04-16T20:35:48.828192","MEAN_ELEMENT_THEORY":"SGP4","FILE":"3404767","SITE":"AFETR","APOAPSIS":"548.276","PERIOD":"95.593","BSTAR":"-0.00022555000000","PERIAPSIS":"546.223","TIME_SYSTEM":"UTC","OBJECT_TYPE":"PAYLOAD","TLE_LINE2":"2 47673  53.0553 318.9644 0001482  45.0438 315.0671 15.06388222 65803","ECCENTRICITY":"0.00014820"},{"INCLINATION":"53.0542","RA_OF_ASC_NODE":"318.8799","CLASSIFICATION_TYPE":"U","GP_ID":"201420371","MEAN_ELEMENT_THEORY":"SGP4","SEMIMAJOR_AXIS":"6925.367","REV_AT_EPOCH":"6581","EPOCH":"2022-04-16T20:57:02.256192","SITE":"AFETR","APOAPSIS":"548.277","PERIOD":"95.593","BSTAR":"0.00002007900000","FILE":"3404767","ECCENTRICITY":"0.00015090","TIME_SYSTEM":"UTC","PERIAPSIS":"546.187","OBJECT_TYPE":"PAYLOAD","TLE_LINE2":"2 47674  53.0542 318.8799 0001509  68.9784 291.1367 15.06394122 65813","RCS_SIZE":"LARGE","OBJECT_NAME":"STARLINK-2067","ARG_OF_PERICENTER":"68.9784","CENTER_NAME":"EARTH","MEAN_MOTION_DDOT":"0.0000000000000","REF_FRAME":"TEME","MEAN_ANOMALY":"291.1367","ELEMENT_SET_NO":"999","LAUNCH_DATE":"2021-02-16","TLE_LINE1":"1 47674U 21012BG  22106.87294278  .00000018  00000-0  20079-4 0  9993","MEAN_MOTION":"15.06394122","COUNTRY_CODE":"US","MEAN_MOTION_DOT":"0.00000018","NORAD_CAT_ID":"47674","EPHEMERIS_TYPE":"0","DECAY_DATE":null,"OBJECT_ID":"2021-012BG"},{"FILE":"3404767","SITE":"AFETR","APOAPSIS":"548.394","PERIOD":"95.594","BSTAR":"-0.00099968000000","PERIAPSIS":"546.219","TIME_SYSTEM":"UTC","OBJECT_TYPE":"PAYLOAD","TLE_LINE2":"2 47675  53.0535 318.9309 0001570  63.5491 296.5659 15.06369688 65810","ECCENTRICITY":"0.00015700","INCLINATION":"53.0535","RA_OF_ASC_NODE":"318.9309","CLASSIFICATION_TYPE":"U","GP_ID":"201420618","SEMIMAJOR_AXIS":"6925.441","REV_AT_EPOCH":"6581","EPOCH":"2022-04-16T20:46:25.807872","MEAN_ELEMENT_THEORY":"SGP4","MEAN_MOTION_DOT":"-0.00015128","NORAD_CAT_ID":"47675","COUNTRY_CODE":"US","MEAN_MOTION":"15.06369688","DECAY_DATE":null,"OBJECT_ID":"2021-012BH","EPHEMERIS_TYPE":"0","CENTER_NAME":"EARTH","MEAN_MOTION_DDOT":"0.0000000000000","REF_FRAME":"TEME","RCS_SIZE":"LARGE","OBJECT_NAME":"STARLINK-2078","ARG_OF_PERICENTER":"63.5491","TLE_LINE1":"1 47675U 21012BH  22106.86557648 -.00015128  00000-0 -99968-3 0  9998","MEAN_ANOMALY":"296.5659","ELEMENT_SET_NO":"999","LAUNCH_DATE":"2021-02-16"}];
